{"type": "FeatureCollection", "features": [ {"type": "Feature", "properties": {"norad_id": 36402, "name": "COSMOS 2460 (732)", "group": "gnss", "lat": 11.655300664483415, "lon": -34.362614238138505, "alt_km": 19128.340650257447, "timestamp": "2025-12-27T21:25:02.753955+00:00", "meta": {"OBJECT_NAME": "COSMOS 2460 (732)", "OBJECT_ID": "2010-007C", "EPOCH": "2025-12-27T01:42:51.563232", "MEAN_MOTION": 2.13106312, "ECCENTRICITY": 0.00024726, "INCLINATION": 65.5217, "RA_OF_ASC_NODE": 320.2897, "ARG_OF_PERICENTER": 284.8889, "MEAN_ANOMALY": 178.0863, "EPHEMERIS_TYPE": 0, "CLASSIFICATION_TYPE": "U", "NORAD_CAT_ID": 36402, "ELEMENT_SET_NO": 999, "REV_AT_EPOCH": 12306, "BSTAR": 0, "MEAN_MOTION_DOT": -3.6e-07, "MEAN_MOTION_DDOT": 0}, "tle": {"line1": "1 36402U 10007C   25361.07143013 -.00000036  00000+0  00000+0 0  9997", "line2": "2 36402  65.5217 320.2897 0002472 284.8889 178.0863  2.13106312123060"}}, "geometry": {"type": "Point", "coordinates": [-34.362614238138505, 11.655300664483415]}}, {"type": "Feature", "properties": {"norad_id": 36585, "name": "GPS BIIF-1  (PRN 25)", "group": "gnss", "lat": -29.327106139236523, "lon": -168.3512469752166, "alt_km": 20254.6311859213, "timestamp": "2025-12-27T21:25:02.753967+00:00", "meta": {"OBJECT_NAME": "GPS BIIF-1  (PRN 25)", "OBJECT_ID": "2010-022A", "EPOCH": "2025-12-27T03:27:39.235104", "MEAN_MOTION": 2.00553872, "ECCENTRICITY": 0.01266459, "INCLINATION": 54.298, "RA_OF_ASC_NODE": 215.4929, "ARG_OF_PERICENTER": 65.2561, "MEAN_ANOMALY": 78.9222, "EPHEMERIS_TYPE": 0, "CLASSIFICATION_TYPE": "U", "NORAD_CAT_ID": 36585, "ELEMENT_SET_NO": 999, "REV_AT_EPOCH": 11414, "BSTAR": 0, "MEAN_MOTION_DOT": 8.9e-07, "MEAN_MOTION_DDOT": 0}, "tle": {"line1": "1 36585U 10022A   25361.14420411  .00000089  00000+0  00000+0 0  9991", "line2": "2 36585  54.2980 215.4929 0126645  65.2561  78.9222  2.00553872114141"}}, "geometry": {"type": "Point", "coordinates": [-168.3512469752166, -29.327106139236523]}}, {"type": "Feature", "properties": {"norad_id": 36828, "name": "BEIDOU-2 IGSO-1 (C06)", "group": "gnss", "lat": 1.3343375778882154, "lon": 165.45841010096663, "alt_km": 35965.76921011216, "timestamp": "2025-12-27T21:25:02.753978+00:00", "meta": {"OBJECT_NAME": "BEIDOU-2 IGSO-1 (C06)", "OBJECT_ID": "2010-036A", "EPOCH": "2025-12-25T21:06:51.904224", "MEAN_MOTION": 1.00272533, "ECCENTRICITY": 0.00515074, "INCLINATION": 54.2892, "RA_OF_ASC_NODE": 164.5291, "ARG_OF_PERICENTER": 215.7944, "MEAN_ANOMALY": 138.9488, "EPHEMERIS_TYPE": 0, "CLASSIFICATION_TYPE": "U", "NORAD_CAT_ID": 36828, "ELEMENT_SET_NO": 999, "REV_AT_EPOCH": 5635, "BSTAR": 0, "MEAN_MOTION_DOT": -5.2e-07, "MEAN_MOTION_DDOT": 0}, "tle": {"line1": "1 36828U 10036A   25359.87976741 -.00000052  00000+0  00000+0 0  9996", "line2": "2 36828  54.2892 164.5291 0051507 215.7944 138.9488  1.00272533 56350"}}, "geometry": {"type": "Point", "coordinates": [165.45841010096663, 1.3343375778882154]}}, {"type": "Feature", "properties": {"norad_id": 37210, "name": "BEIDOU-2 G4 (C04)", "group": "gnss", "lat": 1.698705863231891, "lon": -142.0945792343407, "alt_km": 35755.260656931445, "timestamp": "2025-12-27T21:25:02.753991+00:00", "meta": {"OBJECT_NAME": "BEIDOU-2 G4 (C04)", "OBJECT_ID": "2010-057A", "EPOCH": "2025-12-27T13:05:37.654080", "MEAN_MOTION": 1.00271139, "ECCENTRICITY": 0.0010535, "INCLINATION": 3.2189, "RA_OF_ASC_NODE": 69.8819, "ARG_OF_PERICENTER": 194.2662, "MEAN_ANOMALY": 188.6125, "EPHEMERIS_TYPE": 0, "CLASSIFICATION_TYPE": "U", "NORAD_CAT_ID": 37210, "ELEMENT_SET_NO": 999, "REV_AT_EPOCH": 5557, "BSTAR": 0, "MEAN_MOTION_DOT": -9.1e-07, "MEAN_MOTION_DDOT": 0}, "tle": {"line1": "1 37210U 10057A   25361.54557470 -.00000091  00000+0  00000+0 0  9999", "line2": "2 37210   3.2189  69.8819 0010535 194.2662 188.6125  1.00271139 55570"}}, "geometry": {"type": "Point", "coordinates": [-142.0945792343407, 1.698705863231891]}}, {"type": "Feature", "properties": {"norad_id": 37256, "name": "BEIDOU-2 IGSO-2 (C07)", "group": "gnss", "lat": -44.985943665309144, "lon": 158.57117798282712, "alt_km": 35625.26935067864, "timestamp": "2025-12-27T21:25:02.754004+00:00", "meta": {"OBJECT_NAME": "BEIDOU-2 IGSO-2 (C07)", "OBJECT_ID": "2010-068A", "EPOCH": "2025-12-27T13:58:10.761600", "MEAN_MOTION": 1.00281592, "ECCENTRICITY": 0.0048261, "INCLINATION": 47.8585, "RA_OF_ASC_NODE": 273.9673, "ARG_OF_PERICENTER": 215.8634, "MEAN_ANOMALY": 284.1586, "EPHEMERIS_TYPE": 0, "CLASSIFICATION_TYPE": "U", "NORAD_CAT_ID": 37256, "ELEMENT_SET_NO": 999, "REV_AT_EPOCH": 5507, "BSTAR": 0, "MEAN_MOTION_DOT": -2.06e-06, "MEAN_MOTION_DDOT": 0}, "tle": {"line1": "1 37256U 10068A   25361.58206900 -.00000206  00000+0  00000+0 0  9992", "line2": "2 37256  47.8585 273.9673 0048261 215.8634 284.1586  1.00281592 55078"}}, "geometry": {"type": "Point", "coordinates": [158.57117798282712, -44.985943665309144]}}, {"type": "Feature", "properties": {"norad_id": 37384, "name": "BEIDOU-2 IGSO-3 (C08)", "group": "gnss", "lat": 47.98774511514918, "lon": -174.09302652442028, "alt_km": 35719.91386157192, "timestamp": "2025-12-27T21:25:02.754015+00:00", "meta": {"OBJECT_NAME": "BEIDOU-2 IGSO-3 (C08)", "OBJECT_ID": "2011-013A", "EPOCH": "2025-12-26T18:04:14.277792", "MEAN_MOTION": 1.00267391, "ECCENTRICITY": 0.00351191, "INCLINATION": 62.1613, "RA_OF_ASC_NODE": 41.7837, "ARG_OF_PERICENTER": 187.8187, "MEAN_ANOMALY": 244.1436, "EPHEMERIS_TYPE": 0, "CLASSIFICATION_TYPE": "U", "NORAD_CAT_ID": 37384, "ELEMENT_SET_NO": 999, "REV_AT_EPOCH": 5393, "BSTAR": 0, "MEAN_MOTION_DOT": -1.71e-06, "MEAN_MOTION_DDOT": 0}, "tle": {"line1": "1 37384U 11013A   25360.75294303 -.00000171  00000+0  00000+0 0  9998", "line2": "2 37384  62.1613  41.7837 0035119 187.8187 244.1436  1.00267391 53938"}}, "geometry": {"type": "Point", "coordinates": [-174.09302652442028, 47.98774511514918]}}, {"type": "Feature", "properties": {"norad_id": 37605, "name": "GSAT-8 (GAGAN/PRN 127)", "group": "gnss", "lat": 0.8327096431432381, "lon": 112.89179642363301, "alt_km": 35821.705100677944, "timestamp": "2025-12-27T21:25:02.754028+00:00", "meta": {"OBJECT_NAME": "GSAT-8 (GAGAN/PRN 127)", "OBJECT_ID": "2011-022A", "EPOCH": "2025-12-27T11:33:06.149952", "MEAN_MOTION": 1.0027204, "ECCENTRICITY": 0.0009123, "INCLINATION": 1.6859, "RA_OF_ASC_NODE": 84.0337, "ARG_OF_PERICENTER": 186.9871, "MEAN_ANOMALY": 53.5354, "EPHEMERIS_TYPE": 0, "CLASSIFICATION_TYPE": "U", "NORAD_CAT_ID": 37605, "ELEMENT_SET_NO": 999, "REV_AT_EPOCH": 5149, "BSTAR": 0, "MEAN_MOTION_DOT": 1.06e-06, "MEAN_MOTION_DDOT": 0}, "tle": {"line1": "1 37605U 11022A   25361.48132118  .00000106  00000+0  00000+0 0  9997", "line2": "2 37605   1.6859  84.0337 0009123 186.9871  53.5354  1.00272040 51492"}}, "geometry": {"type": "Point", "coordinates": [112.89179642363301, 0.8327096431432381]}}, {"type": "Feature", "properties": {"norad_id": 37763, "name": "BEIDOU-2 IGSO-4 (C09)", "group": "gnss", "lat": -10.554050488298984, "lon": 159.57534131859174, "alt_km": 36063.0533824509, "timestamp": "2025-12-27T21:25:02.754057+00:00", "meta": {"OBJECT_NAME": "BEIDOU-2 IGSO-4 (C09)", "OBJECT_ID": "2011-038A", "EPOCH": "2025-12-26T23:21:51.633792", "MEAN_MOTION": 1.00276208, "ECCENTRICITY": 0.01496647, "INCLINATION": 54.5847, "RA_OF_ASC_NODE": 167.22, "ARG_OF_PERICENTER": 230.2504, "MEAN_ANOMALY": 143.4727, "EPHEMERIS_TYPE": 0, "CLASSIFICATION_TYPE": "U", "NORAD_CAT_ID": 37763, "ELEMENT_SET_NO": 999, "REV_AT_EPOCH": 5292, "BSTAR": 0, "MEAN_MOTION_DOT": 7.7e-07, "MEAN_MOTION_DDOT": 0}, "tle": {"line1": "1 37763U 11038A   25360.97351428  .00000077  00000+0  00000+0 0  9996", "line2": "2 37763  54.5847 167.2200 0149664 230.2504 143.4727  1.00276208 52927"}}, "geometry": {"type": "Point", "coordinates": [159.57534131859174, -10.554050488298984]}}, {"type": "Feature", "properties": {"norad_id": 37846, "name": "GSAT0101 (GALILEO-PFM)", "group": "gnss", "lat": -17.175555047507586, "lon": 177.9629170009723, "alt_km": 23229.324631414933, "timestamp": "2025-12-27T21:25:02.754071+00:00", "meta": {"OBJECT_NAME": "GSAT0101 (GALILEO-PFM)", "OBJECT_ID": "2011-060A", "EPOCH": "2025-12-24T15:10:54.850656", "MEAN_MOTION": 1.70475643, "ECCENTRICITY": 0.00032614, "INCLINATION": 57.05, "RA_OF_ASC_NODE": 346.4975, "ARG_OF_PERICENTER": 321.0017, "MEAN_ANOMALY": 38.9828, "EPHEMERIS_TYPE": 0, "CLASSIFICATION_TYPE": "U", "NORAD_CAT_ID": 37846, "ELEMENT_SET_NO": 999, "REV_AT_EPOCH": 8814, "BSTAR": 0, "MEAN_MOTION_DOT": -6.1e-07, "MEAN_MOTION_DDOT": 0}, "tle": {"line1": "1 37846U 11060A   25358.63257929 -.00000061  00000+0  00000+0 0  9998", "line2": "2 37846  57.0500 346.4975 0003261 321.0017  38.9828  1.70475643 88147"}}, "geometry": {"type": "Point", "coordinates": [177.9629170009723, -17.175555047507586]}}, {"type": "Feature", "properties": {"norad_id": 37847, "name": "GSAT0102 (GALILEO-FM2)", "group": "gnss", "lat": -50.06606458111223, "lon": -142.8231300869289, "alt_km": 23221.58588162149, "timestamp": "2025-12-27T21:25:02.754083+00:00", "meta": {"OBJECT_NAME": "GSAT0102 (GALILEO-FM2)", "OBJECT_ID": "2011-060B", "EPOCH": "2025-12-22T11:58:40.586304", "MEAN_MOTION": 1.70475957, "ECCENTRICITY": 0.00051595, "INCLINATION": 57.0512, "RA_OF_ASC_NODE": 346.5558, "ARG_OF_PERICENTER": 313.0615, "MEAN_ANOMALY": 223.0229, "EPHEMERIS_TYPE": 0, "CLASSIFICATION_TYPE": "U", "NORAD_CAT_ID": 37847, "ELEMENT_SET_NO": 999, "REV_AT_EPOCH": 8811, "BSTAR": 0, "MEAN_MOTION_DOT": -6.5e-07, "MEAN_MOTION_DDOT": 0}, "tle": {"line1": "1 37847U 11060B   25356.49908086 -.00000065  00000+0  00000+0 0  9992", "line2": "2 37847  57.0512 346.5558 0005159 313.0615 223.0229  1.70475957 88119"}}, "geometry": {"type": "Point", "coordinates": [-142.8231300869289, -50.06606458111223]}}]}